{
  "norad_id": 64131,
  "name": "STARLINK-11720 [DTC]",
  "history": [
    {
      "epoch": "2026-03-28T18:41:56.070816Z",
      "apogee_km": 357.2629090560067,
      "perigee_km": 355.456447667003,
      "latitude_deg": 1.3386213942850959e-05,
      "longitude_deg": 111.90231310807863,
      "height_km": 356.37856225966107,
      "semi_major_axis_km": 6734.496678361505,
      "eccentricity": 0.00013412,
      "inclination_deg": 43.0001,
      "raan_deg": 218.5806,
      "arg_perigee_deg": 254.1586,
      "mean_anomaly_deg": 105.9134,
      "mean_motion_rev_day": 15.70887368
    },
    {
      "epoch": "2026-03-30T01:13:09.093216Z",
      "apogee_km": 357.5749551337085,
      "perigee_km": 355.1572685165629,
      "latitude_deg": -3.34459576467121e-05,
      "longitude_deg": 5.178880126928439,
      "height_km": 355.26200450164566,
      "semi_major_axis_km": 6734.503111825135,
      "eccentricity": 0.0001795,
      "inclination_deg": 43.0022,
      "raan_deg": 210.9149,
      "arg_perigee_deg": 43.6784,
      "mean_anomaly_deg": 316.4225,
      "mean_motion_rev_day": 15.70885117
    },
    {
      "epoch": "2026-03-30T05:47:48.625728Z",
      "apogee_km": 357.7590296198114,
      "perigee_km": 355.09860673899766,
      "latitude_deg": -5.846775624862767e-06,
      "longitude_deg": -64.82380634465089,
      "height_km": 355.99170158514085,
      "semi_major_axis_km": 6734.565818179404,
      "eccentricity": 0.00019752,
      "inclination_deg": 43.0016,
      "raan_deg": 209.7649,
      "arg_perigee_deg": 279.0925,
      "mean_anomaly_deg": 80.9719,
      "mean_motion_rev_day": 15.70863177
    },
    {
      "epoch": "2026-03-30T14:57:10.166112Z",
      "apogee_km": 357.25214316231086,
      "perigee_km": 355.2510869292364,
      "latitude_deg": 5.532558605040468e-06,
      "longitude_deg": 155.16013175158508,
      "height_km": 356.8041414553385,
      "semi_major_axis_km": 6734.388615045774,
      "eccentricity": 0.00014857,
      "inclination_deg": 43.0006,
      "raan_deg": 207.4646,
      "arg_perigee_deg": 141.446,
      "mean_anomaly_deg": 218.6514,
      "mean_motion_rev_day": 15.70925179
    },
    {
      "epoch": "2026-03-31T13:50:34.490112Z",
      "apogee_km": 357.05084312072177,
      "perigee_km": 355.4682599311127,
      "latitude_deg": 5.3296389948121156e-05,
      "longitude_deg": 165.12047133649267,
      "height_km": 356.81367622448715,
      "semi_major_axis_km": 6734.396551525917,
      "eccentricity": 0.0001175,
      "inclination_deg": 43.0004,
      "raan_deg": 201.7163,
      "arg_perigee_deg": 188.3587,
      "mean_anomaly_deg": 171.7262,
      "mean_motion_rev_day": 15.70922402
    },
    {
      "epoch": "2026-04-01T08:09:17.360064Z",
      "apogee_km": 357.207186732182,
      "perigee_km": 355.325594424854,
      "latitude_deg": -3.468871706715099e-05,
      "longitude_deg": -114.91028962330748,
      "height_km": 356.33072169596187,
      "semi_major_axis_km": 6734.403390578517,
      "eccentricity": 0.0001397,
      "inclination_deg": 43.0007,
      "raan_deg": 197.1163,
      "arg_perigee_deg": 251.9238,
      "mean_anomaly_deg": 108.1477,
      "mean_motion_rev_day": 15.70920009
    },
    {
      "epoch": "2026-04-02T13:08:54.996000Z",
      "apogee_km": 358.1730197619554,
      "perigee_km": 354.1239632673278,
      "latitude_deg": 3.3303270303200575e-05,
      "longitude_deg": 161.71143512062542,
      "height_km": 356.2016856957014,
      "semi_major_axis_km": 6734.285491514642,
      "eccentricity": 0.00030063,
      "inclination_deg": 43.0018,
      "raan_deg": 189.8355,
      "arg_perigee_deg": 262.0659,
      "mean_anomaly_deg": 97.9868,
      "mean_motion_rev_day": 15.70961263
    },
    {
      "epoch": "2026-04-04T15:30:23.008032Z",
      "apogee_km": 357.36880780180945,
      "perigee_km": 355.09124487350255,
      "latitude_deg": 3.7758469310579114e-05,
      "longitude_deg": 111.63150211697078,
      "height_km": 356.187309063514,
      "semi_major_axis_km": 6734.367026337656,
      "eccentricity": 0.0001691,
      "inclination_deg": 43.0,
      "raan_deg": 177.1904,
      "arg_perigee_deg": 260.6681,
      "mean_anomaly_deg": 99.3996,
      "mean_motion_rev_day": 15.70932733
    },
    {
      "epoch": "2026-04-05T14:23:49.076448Z",
      "apogee_km": 357.25757281272854,
      "perigee_km": 355.60760326365926,
      "latitude_deg": 1.6845281858649163e-07,
      "longitude_deg": 121.58205972943679,
      "height_km": 356.0401442133714,
      "semi_major_axis_km": 6734.569588038194,
      "eccentricity": 0.0001225,
      "inclination_deg": 42.9991,
      "raan_deg": 171.4397,
      "arg_perigee_deg": 281.5118,
      "mean_anomaly_deg": 78.5612,
      "mean_motion_rev_day": 15.70861858
    },
    {
      "epoch": "2026-04-06T05:39:23.390496Z",
      "apogee_km": 357.0968771478356,
      "perigee_km": 355.026919090531,
      "latitude_deg": -3.0381592520313304e-05,
      "longitude_deg": -111.7709360480753,
      "height_km": 356.26319559583754,
      "semi_major_axis_km": 6734.198898119183,
      "eccentricity": 0.00015369,
      "inclination_deg": 42.9988,
      "raan_deg": 167.6064,
      "arg_perigee_deg": 245.5083,
      "mean_anomaly_deg": 114.5624,
      "mean_motion_rev_day": 15.70991564
    },
    {
      "epoch": "2026-04-07T13:42:08.873856Z",
      "apogee_km": 357.30549072331087,
      "perigee_km": 355.6029860582448,
      "latitude_deg": 3.6723143761725086e-05,
      "longitude_deg": 118.17553681532547,
      "height_km": 356.31007036947807,
      "semi_major_axis_km": 6734.591238390777,
      "eccentricity": 0.0001264,
      "inclination_deg": 42.9999,
      "raan_deg": 159.5584,
      "arg_perigee_deg": 264.3685,
      "mean_anomaly_deg": 95.7039,
      "mean_motion_rev_day": 15.70854283
    },
    {
      "epoch": "2026-04-08T03:26:11.146848Z",
      "apogee_km": 356.2711566695252,
      "perigee_km": 356.2475862822248,
      "latitude_deg": 1.2719358626624824e-05,
      "longitude_deg": -91.84799516952603,
      "height_km": 356.03578372082643,
      "semi_major_axis_km": 6734.396371475875,
      "eccentricity": 1.75e-06,
      "inclination_deg": 42.9983,
      "raan_deg": 156.1084,
      "arg_perigee_deg": 242.4599,
      "mean_anomaly_deg": 117.6267,
      "mean_motion_rev_day": 15.70922465
    },
    {
      "epoch": "2026-04-09T09:57:22.857696Z",
      "apogee_km": 357.97705947135364,
      "perigee_km": 354.91417129787624,
      "latitude_deg": 4.869599442120092e-05,
      "longitude_deg": 161.4346355712091,
      "height_km": 356.36546688422214,
      "semi_major_axis_km": 6734.582615384615,
      "eccentricity": 0.0002274,
      "inclination_deg": 43.0034,
      "raan_deg": 148.4432,
      "arg_perigee_deg": 264.5152,
      "mean_anomaly_deg": 95.5457,
      "mean_motion_rev_day": 15.708573
    },
    {
      "epoch": "2026-04-10T11:53:53.746944Z",
      "apogee_km": 357.35027968377017,
      "perigee_km": 355.2477887538862,
      "latitude_deg": -4.284927848807827e-06,
      "longitude_deg": 124.72557445931201,
      "height_km": 355.8166799645953,
      "semi_major_axis_km": 6734.436034218827,
      "eccentricity": 0.0001561,
      "inclination_deg": 43.0018,
      "raan_deg": 141.9283,
      "arg_perigee_deg": 284.0456,
      "mean_anomaly_deg": 76.0238,
      "mean_motion_rev_day": 15.70908587
    },
    {
      "epoch": "2026-04-11T10:47:17.714112Z",
      "apogee_km": 358.23984482730066,
      "perigee_km": 354.4739158494149,
      "latitude_deg": 2.1869416671016768e-05,
      "longitude_deg": 134.6874787210913,
      "height_km": 356.0333958922061,
      "semi_major_axis_km": 6734.4938803383575,
      "eccentricity": 0.0002796,
      "inclination_deg": 43.0038,
      "raan_deg": 136.1801,
      "arg_perigee_deg": 272.965,
      "mean_anomaly_deg": 87.0898,
      "mean_motion_rev_day": 15.70888347
    },
    {
      "epoch": "2026-04-13T02:27:51.042240Z",
      "apogee_km": 357.4611461944105,
      "perigee_km": 355.00552539516775,
      "latitude_deg": 1.5050359044829681e-05,
      "longitude_deg": -112.04602937315047,
      "height_km": 356.0355186876779,
      "semi_major_axis_km": 6734.370335794789,
      "eccentricity": 0.00018232,
      "inclination_deg": 43.001,
      "raan_deg": 126.2149,
      "arg_perigee_deg": 268.6327,
      "mean_anomaly_deg": 91.4332,
      "mean_motion_rev_day": 15.70931575
    },
    {
      "epoch": "2026-04-14T18:08:24.729792Z",
      "apogee_km": 356.9750449641542,
      "perigee_km": 355.94734527957826,
      "latitude_deg": 2.14476780915297e-05,
      "longitude_deg": 1.2183779013788862,
      "height_km": 356.53056605690153,
      "semi_major_axis_km": 6734.598195121866,
      "eccentricity": 7.63e-05,
      "inclination_deg": 42.997,
      "raan_deg": 116.2491,
      "arg_perigee_deg": 125.6197,
      "mean_anomaly_deg": 234.4742,
      "mean_motion_rev_day": 15.70851849
    },
    {
      "epoch": "2026-04-15T17:01:47.776800Z",
      "apogee_km": 357.6734571298912,
      "perigee_km": 354.72651126560595,
      "latitude_deg": 2.9420801028053994e-06,
      "longitude_deg": 11.183082729738695,
      "height_km": 355.5584213541532,
      "semi_major_axis_km": 6734.336984197748,
      "eccentricity": 0.0002188,
      "inclination_deg": 43.0003,
      "raan_deg": 110.4999,
      "arg_perigee_deg": 286.3441,
      "mean_anomaly_deg": 73.7186,
      "mean_motion_rev_day": 15.70943245
    },
    {
      "epoch": "2026-04-16T06:45:50.003136Z",
      "apogee_km": 358.4393064590513,
      "perigee_km": 354.47397772258773,
      "latitude_deg": 5.262700727568166e-05,
      "longitude_deg": 161.15972706495072,
      "height_km": 356.44199981135887,
      "semi_major_axis_km": 6734.593642090819,
      "eccentricity": 0.0002944,
      "inclination_deg": 43.0019,
      "raan_deg": 107.0498,
      "arg_perigee_deg": 263.8729,
      "mean_anomaly_deg": 96.1804,
      "mean_motion_rev_day": 15.70853442
    }
  ]
}